[{"OBJECT_NAME":"OSCAR 31","OBJECT_ID":"1988-074B","EPOCH":"2026-04-27T04:53:26.625696","MEAN_MOTION":13.42605073,"ECCENTRICITY":0.0092982,"INCLINATION":90.047,"RA_OF_ASC_NODE":21.1241,"ARG_OF_PERICENTER":213.2121,"MEAN_ANOMALY":300.4925,"EPHEMERIS_TYPE":0,"CLASSIFICATION_TYPE":"U","NORAD_CAT_ID":19420,"ELEMENT_SET_NO":999,"REV_AT_EPOCH":84468,"BSTAR":0.00011256788,"MEAN_MOTION_DOT":7.4e-7,"MEAN_MOTION_DDOT":0}]
