OSCAR 31                
1 19420U 88074B   26117.20378039  .00000074  00000+0  11257-3 0  9991
2 19420  90.0470  21.1241 0092982 213.2121 300.4925 13.42605073844685
